start=new Date('2022-10-22T00:00:00.000Z').valueOf();
sats=[{"INCLINATION":"53.2166","SITE":"AFETR","ECCENTRICITY":"0.00017330","NORAD_CAT_ID":"53421","ELEMENT_SET_NO":"999","LAUNCH_DATE":"2022-08-10","COUNTRY_CODE":"US","OBJECT_ID":"2022-097AK","PERIAPSIS":"538.492","MEAN_MOTION":"15.08857705","SEMIMAJOR_AXIS":"6917.826","TIME_SYSTEM":"UTC","MEAN_MOTION_DOT":"-0.00007969","CENTER_NAME":"EARTH","TLE_LINE2":"2 53421  53.2166 257.2161 0001733  52.4839  43.6687 15.08857705  1303","REV_AT_EPOCH":"130","MEAN_ELEMENT_THEORY":"SGP4","PERIOD":"95.436","DECAY_DATE":null,"APOAPSIS":"540.890","RCS_SIZE":"LARGE","EPHEMERIS_TYPE":"0","ARG_OF_PERICENTER":"52.4839","OBJECT_NAME":"STARLINK-4545","TLE_LINE1":"1 53421U 22097AK  22294.91667824 -.00007969  00000-0 -48289-3 0  9994","MEAN_ANOMALY":"43.6687","BSTAR":"-0.00048289000000","FILE":"3628413","EPOCH":"2022-10-21T22:00:00.999936","CLASSIFICATION_TYPE":"U","MEAN_MOTION_DDOT":"0.0000000000000","REF_FRAME":"TEME","RA_OF_ASC_NODE":"257.2161","OBJECT_TYPE":"PAYLOAD","GP_ID":"215846188"},{"OBJECT_NAME":"STARLINK-4546","ARG_OF_PERICENTER":"43.7023","MEAN_ANOMALY":"132.3931","TLE_LINE1":"1 53422U 22097AL  22294.91667824  .00000265  00000-0  34742-4 0  9995","BSTAR":"0.00003474200000","MEAN_ELEMENT_THEORY":"SGP4","PERIOD":"95.436","APOAPSIS":"540.743","DECAY_DATE":null,"RCS_SIZE":"LARGE","EPHEMERIS_TYPE":"0","REF_FRAME":"TEME","OBJECT_TYPE":"PAYLOAD","RA_OF_ASC_NODE":"257.2163","GP_ID":"215846024","FILE":"3628413","CLASSIFICATION_TYPE":"U","EPOCH":"2022-10-21T22:00:00.999936","MEAN_MOTION_DDOT":"0.0000000000000","LAUNCH_DATE":"2022-08-10","COUNTRY_CODE":"US","OBJECT_ID":"2022-097AL","INCLINATION":"53.2187","ECCENTRICITY":"0.00015410","SITE":"AFETR","NORAD_CAT_ID":"53422","ELEMENT_SET_NO":"999","CENTER_NAME":"EARTH","TLE_LINE2":"2 53422  53.2187 257.2163 0001541  43.7023 132.3931 15.08862301  1300","REV_AT_EPOCH":"130","PERIAPSIS":"538.611","MEAN_MOTION":"15.08862301","SEMIMAJOR_AXIS":"6917.812","TIME_SYSTEM":"UTC","MEAN_MOTION_DOT":"0.00000265"},{"SITE":"AFETR","ECCENTRICITY":"0.00016380","NORAD_CAT_ID":"53423","ELEMENT_SET_NO":"999","INCLINATION":"53.2171","OBJECT_ID":"2022-097AM","LAUNCH_DATE":"2022-08-10","COUNTRY_CODE":"US","MEAN_MOTION_DOT":"0.00022898","TIME_SYSTEM":"UTC","MEAN_MOTION":"15.08824992","PERIAPSIS":"538.658","SEMIMAJOR_AXIS":"6917.926","REV_AT_EPOCH":"130","TLE_LINE2":"2 53423  53.2171 257.2143 0001638  55.8080  60.4051 15.08824992  1304","CENTER_NAME":"EARTH","EPHEMERIS_TYPE":"0","RCS_SIZE":"LARGE","APOAPSIS":"540.924","DECAY_DATE":null,"PERIOD":"95.439","MEAN_ELEMENT_THEORY":"SGP4","BSTAR":"0.00145270000000","TLE_LINE1":"1 53423U 22097AM  22294.91667824  .00022898  00000-0  14527-2 0  9999","MEAN_ANOMALY":"60.4051","OBJECT_NAME":"STARLINK-4539","ARG_OF_PERICENTER":"55.8080","CLASSIFICATION_TYPE":"U","EPOCH":"2022-10-21T22:00:00.999936","MEAN_MOTION_DDOT":"0.0000000000000","FILE":"3628413","GP_ID":"215846351","RA_OF_ASC_NODE":"257.2143","OBJECT_TYPE":"PAYLOAD","REF_FRAME":"TEME"},{"APOAPSIS":"540.783","DECAY_DATE":null,"RCS_SIZE":"LARGE","EPHEMERIS_TYPE":"0","MEAN_ELEMENT_THEORY":"SGP4","PERIOD":"95.436","MEAN_ANOMALY":"163.0454","TLE_LINE1":"1 53424U 22097AN  22294.91667824  .00019018  00000-0  12090-2 0  9993","BSTAR":"0.00120900000000","ARG_OF_PERICENTER":"52.9797","OBJECT_NAME":"STARLINK-4532","CLASSIFICATION_TYPE":"U","EPOCH":"2022-10-21T22:00:00.999936","MEAN_MOTION_DDOT":"0.0000000000000","FILE":"3628413","OBJECT_TYPE":"PAYLOAD","RA_OF_ASC_NODE":"257.2164","GP_ID":"215845444","REF_FRAME":"TEME","SITE":"AFETR","ECCENTRICITY":"0.00016030","ELEMENT_SET_NO":"999","NORAD_CAT_ID":"53424","INCLINATION":"53.2197","LAUNCH_DATE":"2022-08-10","COUNTRY_CODE":"US","OBJECT_ID":"2022-097AN","MEAN_MOTION_DOT":"0.00019018","PERIAPSIS":"538.565","SEMIMAJOR_AXIS":"6917.809","MEAN_MOTION":"15.08863228","TIME_SYSTEM":"UTC","REV_AT_EPOCH":"130","CENTER_NAME":"EARTH","TLE_LINE2":"2 53424  53.2197 257.2164 0001603  52.9797 163.0454 15.08863228  1303"},{"REV_AT_EPOCH":"130","TLE_LINE2":"2 53425  53.2184 257.2163 0001546  52.3984 103.6999 15.08841982  1304","CENTER_NAME":"EARTH","MEAN_MOTION_DOT":"0.00021064","TIME_SYSTEM":"UTC","MEAN_MOTION":"15.08841982","PERIAPSIS":"538.670","SEMIMAJOR_AXIS":"6917.874","OBJECT_ID":"2022-097AP","LAUNCH_DATE":"2022-08-10","COUNTRY_CODE":"US","ECCENTRICITY":"0.00015460","SITE":"AFETR","NORAD_CAT_ID":"53425","ELEMENT_SET_NO":"999","INCLINATION":"53.2184","GP_ID":"215846187","OBJECT_TYPE":"PAYLOAD","RA_OF_ASC_NODE":"257.2163","REF_FRAME":"TEME","EPOCH":"2022-10-21T22:00:00.999936","CLASSIFICATION_TYPE":"U","MEAN_MOTION_DDOT":"0.0000000000000","FILE":"3628413","BSTAR":"0.00133750000000","MEAN_ANOMALY":"103.6999","TLE_LINE1":"1 53425U 22097AP  22294.91667824  .00021064  00000-0  13375-2 0  9995","OBJECT_NAME":"STARLINK-4531","ARG_OF_PERICENTER":"52.3984","RCS_SIZE":"LARGE","EPHEMERIS_TYPE":"0","APOAPSIS":"540.809","DECAY_DATE":null,"PERIOD":"95.437","MEAN_ELEMENT_THEORY":"SGP4"},{"MEAN_MOTION_DOT":"-0.01146495","PERIAPSIS":"426.041","SEMIMAJOR_AXIS":"6804.903","MEAN_MOTION":"15.46571018","TIME_SYSTEM":"UTC","REV_AT_EPOCH":"131","CENTER_NAME":"EARTH","TLE_LINE2":"2 53426  53.2167 249.4262 0001068  89.6131 270.8350 15.46571018  1316","ELEMENT_SET_NO":"999","NORAD_CAT_ID":"53426","ECCENTRICITY":"0.00010680","SITE":"AFETR","INCLINATION":"53.2167","COUNTRY_CODE":"US","LAUNCH_DATE":"2022-08-10","OBJECT_ID":"2022-097AQ","MEAN_MOTION_DDOT":"0.0000000000000","EPOCH":"2022-10-21T22:00:00.999936","CLASSIFICATION_TYPE":"U","FILE":"3628413","OBJECT_TYPE":"PAYLOAD","RA_OF_ASC_NODE":"249.4262","GP_ID":"215845607","REF_FRAME":"TEME","APOAPSIS":"427.495","DECAY_DATE":null,"EPHEMERIS_TYPE":"0","RCS_SIZE":"LARGE","MEAN_ELEMENT_THEORY":"SGP4","PERIOD":"93.109","MEAN_ANOMALY":"270.8350","TLE_LINE1":"1 53426U 22097AQ  22294.91667824 -.01146495  00000-0 -24802-1 0  9991","BSTAR":"-0.02480200000000","ARG_OF_PERICENTER":"89.6131","OBJECT_NAME":"STARLINK-4558"},{"MEAN_MOTION_DOT":"0.00012852","TIME_SYSTEM":"UTC","SEMIMAJOR_AXIS":"6917.813","PERIAPSIS":"538.568","MEAN_MOTION":"15.08862186","REV_AT_EPOCH":"130","TLE_LINE2":"2 53427  53.2195 257.2165 0001604  48.8034 147.2657 15.08862186  1305","CENTER_NAME":"EARTH","SITE":"AFETR","ECCENTRICITY":"0.00016040","ELEMENT_SET_NO":"999","NORAD_CAT_ID":"53427","INCLINATION":"53.2195","OBJECT_ID":"2022-097AR","LAUNCH_DATE":"2022-08-10","COUNTRY_CODE":"US","EPOCH":"2022-10-21T22:00:00.999936","CLASSIFICATION_TYPE":"U","MEAN_MOTION_DDOT":"0.0000000000000","FILE":"3628413","GP_ID":"215846586","RA_OF_ASC_NODE":"257.2165","OBJECT_TYPE":"PAYLOAD","REF_FRAME":"TEME","RCS_SIZE":"LARGE","EPHEMERIS_TYPE":"0","DECAY_DATE":null,"APOAPSIS":"540.787","PERIOD":"95.436","MEAN_ELEMENT_THEORY":"SGP4","BSTAR":"0.00082362000000","TLE_LINE1":"1 53427U 22097AR  22294.91667824  .00012852  00000-0  82362-3 0  9995","MEAN_ANOMALY":"147.2657","ARG_OF_PERICENTER":"48.8034","OBJECT_NAME":"STARLINK-4541"},{"FILE":"3628413","EPOCH":"2022-10-21T22:00:00.999936","CLASSIFICATION_TYPE":"U","MEAN_MOTION_DDOT":"0.0000000000000","REF_FRAME":"TEME","RA_OF_ASC_NODE":"249.4132","OBJECT_TYPE":"PAYLOAD","GP_ID":"215845862","MEAN_ELEMENT_THEORY":"SGP4","PERIOD":"93.073","DECAY_DATE":null,"APOAPSIS":"425.777","EPHEMERIS_TYPE":"0","RCS_SIZE":"LARGE","OBJECT_NAME":"STARLINK-4540","ARG_OF_PERICENTER":"86.1862","TLE_LINE1":"1 53428U 22097AS  22294.91667824 -.01159242  00000-0 -24578-1 0  9997","MEAN_ANOMALY":"280.7590","BSTAR":"-0.02457800000000","SEMIMAJOR_AXIS":"6803.124","PERIAPSIS":"424.202","MEAN_MOTION":"15.47177491","TIME_SYSTEM":"UTC","MEAN_MOTION_DOT":"-0.01159242","CENTER_NAME":"EARTH","TLE_LINE2":"2 53428  53.2167 249.4132 0001158  86.1862 280.7590 15.47177491  1300","REV_AT_EPOCH":"130","INCLINATION":"53.2167","SITE":"AFETR","ECCENTRICITY":"0.00011580","NORAD_CAT_ID":"53428","ELEMENT_SET_NO":"999","LAUNCH_DATE":"2022-08-10","COUNTRY_CODE":"US","OBJECT_ID":"2022-097AS"},{"EPHEMERIS_TYPE":"0","RCS_SIZE":"LARGE","DECAY_DATE":null,"APOAPSIS":"426.644","PERIOD":"93.091","MEAN_ELEMENT_THEORY":"SGP4","BSTAR":"-0.02490900000000","MEAN_ANOMALY":"285.1345","TLE_LINE1":"1 53429U 22097AT  22294.91667824 -.01162065  00000-0 -24909-1 0  9993","ARG_OF_PERICENTER":"79.2161","OBJECT_NAME":"STARLINK-4543","MEAN_MOTION_DDOT":"0.0000000000000","CLASSIFICATION_TYPE":"U","EPOCH":"2022-10-21T22:00:00.999936","FILE":"3628413","GP_ID":"215846189","OBJECT_TYPE":"PAYLOAD","RA_OF_ASC_NODE":"249.4178","REF_FRAME":"TEME","NORAD_CAT_ID":"53429","ELEMENT_SET_NO":"999","SITE":"AFETR","ECCENTRICITY":"0.00011090","INCLINATION":"53.2167","OBJECT_ID":"2022-097AT","COUNTRY_CODE":"US","LAUNCH_DATE":"2022-08-10","MEAN_MOTION_DOT":"-0.01162065","TIME_SYSTEM":"UTC","MEAN_MOTION":"15.46870517","PERIAPSIS":"425.135","SEMIMAJOR_AXIS":"6804.024","REV_AT_EPOCH":"130","TLE_LINE2":"2 53429  53.2167 249.4178 0001109  79.2161 285.1345 15.46870517  1307","CENTER_NAME":"EARTH"},{"FILE":"3628413","MEAN_MOTION_DDOT":"0.0000000000000","CLASSIFICATION_TYPE":"U","EPOCH":"2022-10-21T22:00:00.999936","REF_FRAME":"TEME","GP_ID":"215846025","RA_OF_ASC_NODE":"249.4085","OBJECT_TYPE":"PAYLOAD","PERIOD":"93.054","MEAN_ELEMENT_THEORY":"SGP4","EPHEMERIS_TYPE":"0","RCS_SIZE":"LARGE","APOAPSIS":"424.852","DECAY_DATE":null,"ARG_OF_PERICENTER":"72.6090","OBJECT_NAME":"STARLINK-4538","BSTAR":"-0.02433400000000","TLE_LINE1":"1 53430U 22097AU  22294.91667824 -.01160148  00000-0 -24334-1 0  9997","MEAN_ANOMALY":"296.7879","TIME_SYSTEM":"UTC","PERIAPSIS":"423.309","MEAN_MOTION":"15.47487516","SEMIMAJOR_AXIS":"6802.216","MEAN_MOTION_DOT":"-0.01160148","TLE_LINE2":"2 53430  53.2168 249.4085 0001134  72.6090 296.7879 15.47487516  1307","CENTER_NAME":"EARTH","REV_AT_EPOCH":"130","INCLINATION":"53.2168","NORAD_CAT_ID":"53430","ELEMENT_SET_NO":"999","ECCENTRICITY":"0.00011340","SITE":"AFETR","OBJECT_ID":"2022-097AU","COUNTRY_CODE":"US","LAUNCH_DATE":"2022-08-10"}];
